[{"OBJECT_NAME":"STARLINK-35026","OBJECT_ID":"2025-198Y","EPOCH":"2026-03-09T22:36:41.553504","MEAN_MOTION":15.30185718,"ECCENTRICITY":0.00015757,"INCLINATION":53.1596,"RA_OF_ASC_NODE":270.1828,"ARG_OF_PERICENTER":53.9969,"MEAN_ANOMALY":306.1177,"EPHEMERIS_TYPE":0,"CLASSIFICATION_TYPE":"U","NORAD_CAT_ID":65514,"ELEMENT_SET_NO":999,"REV_AT_EPOCH":2865,"BSTAR":0.00068971661,"MEAN_MOTION_DOT":0.00020115,"MEAN_MOTION_DDOT":0},{"OBJECT_NAME":"COSMOS 2251 DEB","OBJECT_ID":"1993-036BXP","EPOCH":"2026-03-04T07:23:49.847712","MEAN_MOTION":15.24789556,"ECCENTRICITY":0.00190834,"INCLINATION":73.9759,"RA_OF_ASC_NODE":64.3004,"ARG_OF_PERICENTER":239.4537,"MEAN_ANOMALY":120.4779,"EPHEMERIS_TYPE":0,"CLASSIFICATION_TYPE":"U","NORAD_CAT_ID":47059,"ELEMENT_SET_NO":999,"REV_AT_EPOCH":9543,"BSTAR":0.0048704033,"MEAN_MOTION_DOT":0.00123422,"MEAN_MOTION_DDOT":0}]
